*******************************************************************************
 Revised: April 12, 2021       Solar System Barycenter                        0

 Dynamical point 
 ---------------
 The center of mass for the solar system. See object 10 for Sun ephemeris.
*******************************************************************************


*******************************************************************************
Ephemeris / WWW_USER Wed Feb  2 11:02:11 2022 Pasadena, USA      / Horizons    
*******************************************************************************
Target body name: Solar System Barycenter (0)     {source: DE441}
Center body name: Sun (10)                        {source: DE441}
Center-site name: BODYCENTRIC
*******************************************************************************
Start time      : A.D. 2022-Jan-01 00:09:00.0000 UT      
Stop  time      : A.D. 2022-Dec-31 23:59:00.0000 UT      
Step-size       : 40 minutes
*******************************************************************************
Target pole/equ : MARSIAU                         {East-longitude positive}
Target radii    : 696000.0 x 696000.0 x 696000.0 k{Equator, meridian, pole}    
Center geodetic : 0.00000000,0.00000000,0.0000000 {E-lon(deg),Lat(deg),Alt(km)}
Center cylindric: 0.00000000,0.00000000,0.0000000 {E-lon(deg),Dxy(km),Dz(km)}
Center pole/equ : IAU_SUN                         {East-longitude positive}
Center radii    : 696000.0 x 696000.0 x 696000.0 k{Equator, meridian, pole}    
Target primary  : Sun
Vis. interferer : None
Rel. light bend : Sun                             {source: DE441}
Rel. lght bnd GM: 1.3271E+11 km^3/s^2                                          
Atmos refraction: NO (AIRLESS)
RA format       : HMS
Time format     : CAL 
EOP file        : eop.220131.p220426                                           
EOP coverage    : DATA-BASED 1962-JAN-20 TO 2022-JAN-31. PREDICTS-> 2022-APR-25
Units conversion: 1 au= 149597870.700 km, c= 299792.458 km/s, 1 day= 86400.0 s 
Table cut-offs 1: Elevation (-90.0deg=NO ),Airmass     n.a.    , Daylight (NO )
Table cut-offs 2: Solar elongation (  0.0,180.0=NO ),Local Hour Angle( 0.0=NO )
Table cut-offs 3: RA/DEC angular rate (     0.0=NO )                           
*******************************************************************************
 Date__(UT)__HR:MN     R.A._____(ICRF)_____DEC             delta      deldot
****************************************************************************
$$SOE
 2022-Jul-30 04:09     23 27 24.75 -04 51 57.2  0.00917838410078  -0.0009231
 2022-Jul-30 04:49     23 27 25.10 -04 51 55.1  0.00917836929056  -0.0009232
 2022-Jul-30 05:29     23 27 25.45 -04 51 52.9  0.00917835447751  -0.0009234
 2022-Jul-30 06:09     23 27 25.80 -04 51 50.7  0.00917833966163  -0.0009236
 2022-Jul-30 06:49     23 27 26.16 -04 51 48.5  0.00917832484293  -0.0009238
 2022-Jul-30 07:29     23 27 26.51 -04 51 46.3  0.00917831002141  -0.0009239
 2022-Jul-30 08:09     23 27 26.86 -04 51 44.1  0.00917829519707  -0.0009241
 2022-Jul-30 08:49     23 27 27.21 -04 51 41.9  0.00917828036990  -0.0009243
 2022-Jul-30 09:29     23 27 27.56 -04 51 39.8  0.00917826553991  -0.0009245
 2022-Jul-30 10:09     23 27 27.92 -04 51 37.6  0.00917825070710  -0.0009247
 2022-Jul-30 10:49     23 27 28.27 -04 51 35.4  0.00917823587147  -0.0009248
 2022-Jul-30 11:29     23 27 28.62 -04 51 33.2  0.00917822103301  -0.0009250
 2022-Jul-30 12:09     23 27 28.97 -04 51 31.0  0.00917820619174  -0.0009252
 2022-Jul-30 12:49     23 27 29.33 -04 51 28.8  0.00917819134764  -0.0009254
 2022-Jul-30 13:29     23 27 29.68 -04 51 26.6  0.00917817650073  -0.0009255
 2022-Jul-30 14:09     23 27 30.03 -04 51 24.5  0.00917816165099  -0.0009257
 2022-Jul-30 14:49     23 27 30.38 -04 51 22.3  0.00917814679844  -0.0009259
 2022-Jul-30 15:29     23 27 30.74 -04 51 20.1  0.00917813194306  -0.0009261
 2022-Jul-30 16:09     23 27 31.09 -04 51 17.9  0.00917811708487  -0.0009262
 2022-Jul-30 16:49     23 27 31.44 -04 51 15.7  0.00917810222385  -0.0009264
 2022-Jul-30 17:29     23 27 31.79 -04 51 13.5  0.00917808736002  -0.0009266
 2022-Jul-30 18:09     23 27 32.14 -04 51 11.3  0.00917807249337  -0.0009268
 2022-Jul-30 18:49     23 27 32.50 -04 51 09.2  0.00917805762390  -0.0009269
 2022-Jul-30 19:29     23 27 32.85 -04 51 07.0  0.00917804275161  -0.0009271
 2022-Jul-30 20:09     23 27 33.20 -04 51 04.8  0.00917802787651  -0.0009273
 2022-Jul-30 20:49     23 27 33.55 -04 51 02.6  0.00917801299859  -0.0009275
 2022-Jul-30 21:29     23 27 33.91 -04 51 00.4  0.00917799811785  -0.0009276
 2022-Jul-30 22:09     23 27 34.26 -04 50 58.2  0.00917798323429  -0.0009278
 2022-Jul-30 22:49     23 27 34.61 -04 50 56.0  0.00917796834792  -0.0009280
 2022-Jul-30 23:29     23 27 34.96 -04 50 53.9  0.00917795345873  -0.0009282
 2022-Jul-31 00:09     23 27 35.31 -04 50 51.7  0.00917793856673  -0.0009283
 2022-Jul-31 00:49     23 27 35.67 -04 50 49.5  0.00917792367191  -0.0009285
 2022-Jul-31 01:29     23 27 36.02 -04 50 47.3  0.00917790877427  -0.0009287
 2022-Jul-31 02:09     23 27 36.37 -04 50 45.1  0.00917789387382  -0.0009289
 2022-Jul-31 02:49     23 27 36.72 -04 50 42.9  0.00917787897056  -0.0009290
 2022-Jul-31 03:29     23 27 37.08 -04 50 40.7  0.00917786406448  -0.0009292
 2022-Jul-31 04:09     23 27 37.43 -04 50 38.6  0.00917784915558  -0.0009294
 2022-Jul-31 04:49     23 27 37.78 -04 50 36.4  0.00917783424387  -0.0009296
 2022-Jul-31 05:29     23 27 38.13 -04 50 34.2  0.00917781932935  -0.0009297
 2022-Jul-31 06:09     23 27 38.48 -04 50 32.0  0.00917780441202  -0.0009299
 2022-Jul-31 06:49     23 27 38.84 -04 50 29.8  0.00917778949187  -0.0009301
 2022-Jul-31 07:29     23 27 39.19 -04 50 27.6  0.00917777456891  -0.0009303
 2022-Jul-31 08:09     23 27 39.54 -04 50 25.4  0.00917775964314  -0.0009304
 2022-Jul-31 08:49     23 27 39.89 -04 50 23.2  0.00917774471455  -0.0009306
 2022-Jul-31 09:29     23 27 40.25 -04 50 21.1  0.00917772978316  -0.0009308
 2022-Jul-31 10:09     23 27 40.60 -04 50 18.9  0.00917771484895  -0.0009310
 2022-Jul-31 10:49     23 27 40.95 -04 50 16.7  0.00917769991193  -0.0009311
 2022-Jul-31 11:29     23 27 41.30 -04 50 14.5  0.00917768497210  -0.0009313
 2022-Jul-31 12:09     23 27 41.65 -04 50 12.3  0.00917767002945  -0.0009315
 2022-Jul-31 12:49     23 27 42.01 -04 50 10.1  0.00917765508400  -0.0009317
 2022-Jul-31 13:29     23 27 42.36 -04 50 07.9  0.00917764013574  -0.0009318
 2022-Jul-31 14:09     23 27 42.71 -04 50 05.8  0.00917762518467  -0.0009320
 2022-Jul-31 14:49     23 27 43.06 -04 50 03.6  0.00917761023078  -0.0009322
 2022-Jul-31 15:29     23 27 43.42 -04 50 01.4  0.00917759527409  -0.0009324
 2022-Jul-31 16:09     23 27 43.77 -04 49 59.2  0.00917758031459  -0.0009325
 2022-Jul-31 16:49     23 27 44.12 -04 49 57.0  0.00917756535228  -0.0009327
 2022-Jul-31 17:29     23 27 44.47 -04 49 54.8  0.00917755038716  -0.0009329
 2022-Jul-31 18:09     23 27 44.82 -04 49 52.6  0.00917753541924  -0.0009331
 2022-Jul-31 18:49     23 27 45.18 -04 49 50.5  0.00917752044850  -0.0009333
 2022-Jul-31 19:29     23 27 45.53 -04 49 48.3  0.00917750547496  -0.0009334
 2022-Jul-31 20:09     23 27 45.88 -04 49 46.1  0.00917749049861  -0.0009336
 2022-Jul-31 20:49     23 27 46.23 -04 49 43.9  0.00917747551945  -0.0009338
 2022-Jul-31 21:29     23 27 46.58 -04 49 41.7  0.00917746053749  -0.0009339
 2022-Jul-31 22:09     23 27 46.94 -04 49 39.5  0.00917744555272  -0.0009341
 2022-Jul-31 22:49     23 27 47.29 -04 49 37.3  0.00917743056514  -0.0009343
 2022-Jul-31 23:29     23 27 47.64 -04 49 35.2  0.00917741557476  -0.0009345
 2022-Aug-01 00:09     23 27 47.99 -04 49 33.0  0.00917740058157  -0.0009346
 2022-Aug-01 00:49     23 27 48.35 -04 49 30.8  0.00917738558558  -0.0009348
 2022-Aug-01 01:29     23 27 48.70 -04 49 28.6  0.00917737058678  -0.0009350
 2022-Aug-01 02:09     23 27 49.05 -04 49 26.4  0.00917735558518  -0.0009352
 2022-Aug-01 02:49     23 27 49.40 -04 49 24.2  0.00917734058077  -0.0009353
 2022-Aug-01 03:29     23 27 49.75 -04 49 22.0  0.00917732557356  -0.0009355
 2022-Aug-01 04:09     23 27 50.11 -04 49 19.8  0.00917731056354  -0.0009357
 2022-Aug-01 04:49     23 27 50.46 -04 49 17.7  0.00917729555072  -0.0009359
 2022-Aug-01 05:29     23 27 50.81 -04 49 15.5  0.00917728053510  -0.0009360
 2022-Aug-01 06:09     23 27 51.16 -04 49 13.3  0.00917726551667  -0.0009362
 2022-Aug-01 06:49     23 27 51.52 -04 49 11.1  0.00917725049544  -0.0009364
 2022-Aug-01 07:29     23 27 51.87 -04 49 08.9  0.00917723547141  -0.0009366
 2022-Aug-01 08:09     23 27 52.22 -04 49 06.7  0.00917722044457  -0.0009367
 2022-Aug-01 08:49     23 27 52.57 -04 49 04.5  0.00917720541494  -0.0009369
 2022-Aug-01 09:29     23 27 52.92 -04 49 02.4  0.00917719038250  -0.0009371
 2022-Aug-01 10:09     23 27 53.28 -04 49 00.2  0.00917717534726  -0.0009373
 2022-Aug-01 10:49     23 27 53.63 -04 48 58.0  0.00917716030922  -0.0009374
 2022-Aug-01 11:29     23 27 53.98 -04 48 55.8  0.00917714526838  -0.0009376
 2022-Aug-01 12:09     23 27 54.33 -04 48 53.6  0.00917713022473  -0.0009378
 2022-Aug-01 12:49     23 27 54.68 -04 48 51.4  0.00917711517829  -0.0009380
 2022-Aug-01 13:29     23 27 55.04 -04 48 49.2  0.00917710012905  -0.0009381
 2022-Aug-01 14:09     23 27 55.39 -04 48 47.1  0.00917708507700  -0.0009383
 2022-Aug-01 14:49     23 27 55.74 -04 48 44.9  0.00917707002216  -0.0009385
 2022-Aug-01 15:29     23 27 56.09 -04 48 42.7  0.00917705496452  -0.0009387
 2022-Aug-01 16:09     23 27 56.45 -04 48 40.5  0.00917703990408  -0.0009388
 2022-Aug-01 16:49     23 27 56.80 -04 48 38.3  0.00917702484084  -0.0009390
 2022-Aug-01 17:29     23 27 57.15 -04 48 36.1  0.00917700977480  -0.0009392
 2022-Aug-01 18:09     23 27 57.50 -04 48 33.9  0.00917699470597  -0.0009394
 2022-Aug-01 18:49     23 27 57.85 -04 48 31.8  0.00917697963434  -0.0009395
 2022-Aug-01 19:29     23 27 58.21 -04 48 29.6  0.00917696455991  -0.0009397
 2022-Aug-01 20:09     23 27 58.56 -04 48 27.4  0.00917694948268  -0.0009399
